[{"OBJECT_ID":"2015-022A","OBJECT_NAME":"THOR 7","NORAD_CAT_ID":"40613","OBJECT_TYPE":"PAYLOAD","PERIOD":"1436.078","INCLINATION":"0.0344","APOGEE":"35796.727","PERIGEE":"35775.754","ECCENTRICITY":"0.0002487","MEAN_MOTION":"1.00273055","TLE_LINE1":"1 40613U 15022A   16238.07472141 -.00000034 +00000-0 +00000-0 0  9998","TLE_LINE2":"2 40613 000.0344 239.4609 0002487 281.2404 199.3031 01.00273055004904","LAUNCH_DATE":"2015-04-26","LAUNCH_SITE":"FRENCH GUIANA","OWNER":"NORWAY","ORBIT_TYPE":"Geosynchronous","OPERATIONAL_STATUS":"Operational","satInfo":{"lng":16.911854878303426,"lat":-0.48982170150125315,"elevation":-9.050950917462007,"azimuth":298.0881451216966,"range":42700.06894158258,"height":35791.80594207934,"velocity":3.074841074563254},"x":74,"y":-248,"dx":2.9418646997704676,"dy":0.8944717558792582,"maxAlt":256,"minAlt":256},{"OBJECT_ID":"2015-026B","OBJECT_NAME":"SKY MEXICO-1","NORAD_CAT_ID":"40664","OBJECT_TYPE":"PAYLOAD","PERIOD":"1436.096","INCLINATION":"0.053","APOGEE":"35794.749","PERIGEE":"35778.431","ECCENTRICITY":"0.0001935","MEAN_MOTION":"1.00271809","TLE_LINE1":"1 40664U 15026B   16238.29114754 -.00000261  00000-0  00000+0 0  9996","TLE_LINE2":"2 40664   0.0530 280.9714 0001935 250.1194 188.9072  1.00271809  4615","LAUNCH_DATE":"2015-05-27","LAUNCH_SITE":"FRENCH GUIANA","OWNER":"MEXICO","ORBIT_TYPE":"Geosynchronous","OPERATIONAL_STATUS":"Operational","satInfo":{"lng":-96.64882264473225,"lat":-0.3806708188531087,"elevation":-8.942848831304294,"azimuth":51.64882264473224,"range":42696.041714655745,"height":35799.816853805976,"velocity":3.0741679077310056},"x":-258,"y":28,"dx":-0.35593815785683014,"dy":-3.053492484468353,"maxAlt":256,"minAlt":256},{"OBJECT_ID":"2015-034B","OBJECT_NAME":"STARONE C4","NORAD_CAT_ID":"40733","OBJECT_TYPE":"PAYLOAD","PERIOD":"1436.116","INCLINATION":"0.0426","APOGEE":"35794.672","PERIGEE":"35779.299","ECCENTRICITY":"0.0001823","MEAN_MOTION":"1.00270397","TLE_LINE1":"1 40733U 15034B   16238.26682467 -.00000291  00000-0  00000+0 0  9993","TLE_LINE2":"2 40733   0.0426 306.9180 0001823 182.4859 230.6067  1.00270397  4118","LAUNCH_DATE":"2015-07-15","LAUNCH_SITE":"FRENCH GUIANA","OWNER":"BRAZIL","ORBIT_TYPE":"Geosynchronous","OPERATIONAL_STATUS":"Operational","satInfo":{"lng":-87.06657798982812,"lat":0.22604400628827076,"elevation":-8.351216973795168,"azimuth":42.06657798982811,"range":42625.16219487613,"height":35795.370899335205,"velocity":3.0745683650352507},"x":-259,"y":-15,"dx":0.15734259957989435,"dy":-3.070539681820278,"maxAlt":256,"minAlt":256},{"OBJECT_ID":"2012-035E","OBJECT_NAME":"MSG 3 DEB (COOLER COVER)","NORAD_CAT_ID":"40871","OBJECT_TYPE":"DEBRIS","PERIOD":"1418.465","INCLINATION":"1.6273","APOGEE":"35579.751","PERIGEE":"35301.805","ECCENTRICITY":"0.0033232","MEAN_MOTION":"1.01518138","TLE_LINE1":"1 40871U 12035E   16239.41377436 -.00000184  00000-0  00000+0 0  9990","TLE_LINE2":"2 40871   1.6273 100.7768 0033232 179.0080  85.1063  1.01518138 14835","LAUNCH_DATE":"2012-07-05","LAUNCH_SITE":"FRENCH GUIANA","OWNER":"EUROPEAN ORGANIZATION FOR THE EXPLOITATION OF METEOROLOGICAL SATELLITES","ORBIT_TYPE":"Unclassified","OPERATIONAL_STATUS":"N/A, space debris","satInfo":{"lng":-9.645931018895729,"lat":3.8696303285303535,"elevation":-4.833863037291679,"azimuth":324.64593101889574,"range":41934.037806030945,"height":35502.133106747424,"velocity":3.082898442328151},"x":-44,"y":-254,"dx":3.039312518224904,"dy":-0.5165677325102032,"maxAlt":255,"minAlt":253},{"OBJECT_ID":"2015-039B","OBJECT_NAME":"EUTE 8 WEST B","NORAD_CAT_ID":"40875","OBJECT_TYPE":"PAYLOAD","PERIOD":"1436.088","INCLINATION":"0.0701","APOGEE":"35796.699","PERIGEE":"35776.165","ECCENTRICITY":"0.0002435","MEAN_MOTION":"1.00272371","TLE_LINE1":"1 40875U 15039B   16238.09510241 -.00000091  00000-0  00000+0 0  9994","TLE_LINE2":"2 40875   0.0701  24.6226 0002435 131.8270 203.5565  1.00272371  3778","LAUNCH_DATE":"2015-08-20","LAUNCH_SITE":"FRENCH GUIANA","OWNER":"EUROPEAN TELECOMMUNICATIONS SATELLITE ORGANIZATION (EUTELSAT)","ORBIT_TYPE":"Geosynchronous","OPERATIONAL_STATUS":"Operational","satInfo":{"lng":79.08465317462122,"lat":-0.9050929240967024,"elevation":-9.450131614841252,"azimuth":235.91534682537878,"range":42774.01883420192,"height":35820.65021035166,"velocity":3.0734393057788645},"x":252,"y":-50,"dx":0.5819817228726719,"dy":3.0178347271758645,"maxAlt":256,"minAlt":256},{"OBJECT_ID":"2015-042A","OBJECT_NAME":"INMARSAT 5-F3","NORAD_CAT_ID":"40882","OBJECT_TYPE":"PAYLOAD","PERIOD":"1436.108","INCLINATION":"0.0187","APOGEE":"35789.615","PERIGEE":"35784.015","ECCENTRICITY":"6.64e-05","MEAN_MOTION":"1.00271006","TLE_LINE1":"1 40882U 15042A   16238.57256652  .00000023  00000-0  00000+0 0  9996","TLE_LINE2":"2 40882   0.0187 103.2209 0000664 140.8446 115.9216  1.00271006  3634","LAUNCH_DATE":"2015-08-28","LAUNCH_SITE":"TYURATAM MISSILE AND SPACE COMPLEX","OWNER":"INTERNATIONAL MARITIME SATELLITE ORGANIZATION (INMARSAT)","ORBIT_TYPE":"Geosynchronous","OPERATIONAL_STATUS":"Operational","satInfo":{"lng":32.22405254337178,"lat":1.598241367803623,"elevation":-7.015033238478158,"azimuth":282.7759474566282,"range":42438.91593551973,"height":35759.46333667125,"velocity":3.075776106550046},"x":136,"y":-219,"dx":2.6020124434107506,"dy":1.6401005767817338,"maxAlt":256,"minAlt":256},{"OBJECT_ID":"2015-046A","OBJECT_NAME":"TJS-1","NORAD_CAT_ID":"40892","OBJECT_TYPE":"PAYLOAD","PERIOD":"1436.077","INCLINATION":"0.0419","APOGEE":"35800.859","PERIGEE":"35771.563","ECCENTRICITY":"0.0003474","MEAN_MOTION":"1.0027316","TLE_LINE1":"1 40892U 15046A   16238.66247645 -.00000183  00000-0  00000+0 0  9991","TLE_LINE2":"2 40892   0.0419 223.2316 0003474 133.4166  11.1931  1.00273160  3638","LAUNCH_DATE":"2015-09-12","LAUNCH_SITE":"Xichang Space Center, China","OWNER":"PEOPLES REPUBLIC OF CHINA","ORBIT_TYPE":"Geosynchronous","OPERATIONAL_STATUS":"Operational","satInfo":{"lng":-127.00007402296663,"lat":-0.8821900830315207,"elevation":-9.430409775580538,"azimuth":82.00007402296661,"range":42758.60118349013,"height":35807.59146515253,"velocity":3.0743029733671356},"x":-207,"y":154,"dx":-1.8501648871353182,"dy":-2.4552451328666893,"maxAlt":256,"minAlt":256},{"OBJECT_ID":"2015-048A","OBJECT_NAME":"EXPRESS AM-8","NORAD_CAT_ID":"40895","OBJECT_TYPE":"PAYLOAD","PERIOD":"1436.097","INCLINATION":"0.029","APOGEE":"35789.315","PERIGEE":"35783.918","ECCENTRICITY":"6.4e-05","MEAN_MOTION":"1.00271714","TLE_LINE1":"1 40895U 15048A   16238.82135913 -.00000139 +00000-0 +00000-0 0  9990","TLE_LINE2":"2 40895 000.0290 269.3955 0000640 009.3752 337.4103 01.00271714003450","LAUNCH_DATE":"2015-09-14","LAUNCH_SITE":"TYURATAM MISSILE AND SPACE COMPLEX","OWNER":"COMMONWEALTH OF INDEPENDENT STATES","ORBIT_TYPE":"Geosynchronous","OPERATIONAL_STATUS":"Operational","satInfo":{"lng":-152.46706968830395,"lat":1.2987583586089007,"elevation":-7.307548926145256,"azimuth":107.46706968830394,"range":42477.137244673824,"height":35764.80341070882,"velocity":3.0754779882328607},"x":-121,"y":227,"dx":-2.7271656519378524,"dy":-1.4216653484541404,"maxAlt":256,"minAlt":256},{"OBJECT_ID":"2015-048B","OBJECT_NAME":"BLOCK DM-SL R/B","NORAD_CAT_ID":"40896","OBJECT_TYPE":"ROCKET BODY","PERIOD":"1459.655","INCLINATION":"0.7347","APOGEE":"36665.863","PERIGEE":"35827.096","ECCENTRICITY":"0.009839","MEAN_MOTION":"0.98653401","TLE_LINE1":"1 40896U 15048B   16238.40839248  .00000014  00000-0  00000+0 0  9997","TLE_LINE2":"2 40896   0.7347  86.4577 0098390  53.5728 220.6946  0.98653401  3420","LAUNCH_DATE":"2015-09-14","LAUNCH_SITE":"TYURATAM MISSILE AND SPACE COMPLEX","OWNER":"COMMONWEALTH OF INDEPENDENT STATES","ORBIT_TYPE":"Unclassified","OPERATIONAL_STATUS":"N/A, derelict rocket body","satInfo":{"lng":19.543093152572172,"lat":1.983418101764721,"elevation":-6.591497051011138,"azimuth":295.45690684742783,"range":42620.29936714762,"height":35985.78945872345,"velocity":3.076781516240533},"x":85,"y":-246,"dx":2.8995286332289085,"dy":1.0292318513168406,"maxAlt":263,"minAlt":257},{"OBJECT_ID":"2015-054A","OBJECT_NAME":"SKY MUSTER","NORAD_CAT_ID":"40940","OBJECT_TYPE":"PAYLOAD","PERIOD":"1436.185","INCLINATION":"0.0207","APOGEE":"35796.134","PERIGEE":"35780.532","ECCENTRICITY":"0.000185","MEAN_MOTION":"1.0026559","TLE_LINE1":"1 40940U 15054A   16237.96932466  .00000000  00000-0  10000-3 0  9990","TLE_LINE2":"2 40940   0.0207  83.3086 0001850  65.2612 314.2648  1.00265590  3360","LAUNCH_DATE":"2015-09-30","LAUNCH_SITE":"FRENCH GUIANA","OWNER":"AUSTRALIA","ORBIT_TYPE":"Geosynchronous","OPERATIONAL_STATUS":"Operational","satInfo":{"lng":122.87353175604144,"lat":-2.131128461471485,"elevation":-10.652558631955316,"azimuth":192.12646824395856,"range":42861.16757608318,"height":35773.49467315559,"velocity":3.074943202107284},"x":215,"y":138,"dx":-1.669037728754064,"dy":2.5825546956804755,"maxAlt":256,"minAlt":256},{"OBJECT_ID":"2015-054B","OBJECT_NAME":"ARSAT 2","NORAD_CAT_ID":"40941","OBJECT_TYPE":"PAYLOAD","PERIOD":"1436.108","INCLINATION":"0.0388","APOGEE":"35792.968","PERIGEE":"35780.673","ECCENTRICITY":"0.0001458","MEAN_MOTION":"1.00270985","TLE_LINE1":"1 40941U 15054B   16238.29728104 -.00000251 +00000-0 +00000-0 0  9995","TLE_LINE2":"2 40941 000.0388 297.0810 0001458 242.6629 180.2507 01.00270985003407","LAUNCH_DATE":"2015-09-30","LAUNCH_SITE":"FRENCH GUIANA","OWNER":"ARGENTINA","ORBIT_TYPE":"Geosynchronous","OPERATIONAL_STATUS":"Operational","satInfo":{"lng":-98.90099823676714,"lat":0.3189467259483001,"elevation":-8.259511516256278,"azimuth":53.90099823676714,"range":42619.39313978642,"height":35799.84155475331,"velocity":3.0741392557613465},"x":-256,"y":38,"dx":-0.4756541861119264,"dy":-3.0371179198455773,"maxAlt":256,"minAlt":256}]